P/2016 P5 (COIAS),e,7.0388,185.3646,33.6853,4.699444,0.0967463,0.05744259,93.3970,01/10.0/2026,2000,g 13.2,4.0
# From MPEC 2024-H50
C/2016 Q2 (PANSTARRS),h,05/11.0797/2021,109.3126,322.3533,84.5161,1.001787,7.080052,2000,6.0,4.0
# From MPEC 2023-J95
C/2016 Q4 (Kowalski),e,7.2364,271.2777,100.0290,17.04933,0.0140005,0.58205052,40.6119,01/10.0/2026,2000,g  7.0,4.0
# From MPEC 2021-N06
C/2016 R2 (PANSTARRS),e,58.3811,80.4713,33.1765,575.7166,0.0000713,0.99549328,0.0000,05/11.9744/2018,2000,g  7.0,4.0
# From MPEC 2022-K19
P/2016 R4 (Gibbs),e,10.8609,168.2564,174.0699,5.339541,0.0798819,0.47449132,276.5536,01/10.0/2026,2000,g 12.5,4.0
# From MPEC 2021-P47
C/2016 X1 (Lemmon),e,26.4667,256.3070,224.6564,3493,0.0000048,0.99783435,0.0000,05/01.6139/2019,2000,g  6.0,4.0
# From MPC114598
C/2017 AB5 (PANSTARRS),h,02/19.7334/2018,32.4431,42.6220,78.3952,1.000392,9.211582,2000,5.5,4.0
# From MPEC 2022-OB6
C/2017 B3 (LINEAR),e,54.2470,2.2773,284.7141,2767,0.0000068,0.99857950,0.0000,01/29.8068/2019,2000,g  6.0,4.0
# From MPC103847
P/2017 B4 (PANSTARRS),e,20.0584,121.4578,11.0197,4.410520,0.1064068,0.36495152,359.9130,01/05.0/2017,2000,g 14.5,4.0
# From MPEC 2022-OB6
P/2017 D1 (Fuls),e,20.7715,82.1857,8.1313,4.820322,0.0931301,0.43778620,324.0446,01/10.0/2026,2000,g 14.0,4.0
# From MPEC 2022-O08
C/2017 E3 (PANSTARRS),h,06/06.7504/2017,70.6669,220.7647,334.1518,1.004248,5.900985,2000,6.5,4.0
# From MPC114598
C/2017 F2 (PANSTARRS),h,11/26.5138/2017,42.5405,38.6187,134.7836,1.001848,6.900044,2000,7.5,4.0
# From MPC184408
P/2017 FL36 (PANSTARRS),e,15.6876,313.4432,90.5331,2.928045,0.1967150,0.03312776,30.0670,01/10.0/2026,2000,g 14.7,4.0
# From MPC115882
C/2017 K1 (PANSTARRS),e,154.0257,225.6509,4.1499,15393,0.0000005,0.99952811,0.0000,03/12.6535/2018,2000,g  7.0,4.0
# From MPEC 2026-A24
C/2017 K2 (PANSTARRS),e,87.6389,88.2216,236.1539,1264,0.0000219,0.99857590,0.0000,12/18.1126/2022,2000,g  1.5,4.0
# From MPEC 2021-P47
C/2017 K5 (PANSTARRS),h,03/24.8528/2020,82.2801,102.4608,171.8874,1.002464,7.672773,2000,5.0,4.0
# From MPEC 2022-OB6
C/2017 M4 (ATLAS),e,105.6369,65.9917,167.3614,54381,0.0000001,0.99994056,0.0000,01/17.4341/2019,2000,g  6.0,4.0
# From MPC118841
C/2017 M5 (TOTAS),h,05/30.8727/2018,15.8698,216.3091,92.7872,1.002086,6.009389,2000,6.5,4.0
# From MPC114599
P/2017 P1 (PANSTARRS),e,7.6880,221.4704,122.7022,7.919837,0.0442211,0.30857957,122.2601,01/10.0/2026,2000,g 10.0,4.0
# From MPEC 2020-SI8
C/2017 S7 (Lemmon),e,124.2297,262.6504,187.7476,54438,0.0000001,0.99985964,0.0000,05/25.5403/2017,2000,g  7.0,4.0
# From MPEC 2022-OB6
P/2017 S8 (PANSTARRS),e,29.8416,191.4953,254.9486,2.778387,0.2128213,0.39114836,257.9391,01/10.0/2026,2000,g 16.0,4.0
# From MPEC 2024-A43
C/2017 T2 (PANSTARRS),e,57.2690,64.4099,92.7739,1697,0.0000141,0.99905605,0.0000,05/06.5279/2020,2000,g  5.0,4.0
# From MPC115882
P/2017 TW13 (Lemmon),e,44.8910,322.0915,120.0581,7.138981,0.0516713,0.71047986,142.4624,01/10.0/2026,2000,g 15.0,2.0
# From MPEC 2022-K19
P/2017 U3 (PANSTARRS),e,15.9254,165.0484,296.5928,4.918643,0.0903517,0.10093640,222.0378,01/10.0/2026,2000,g 11.0,4.0
# From MPEC 2023-CD7
C/2017 U4 (PANSTARRS),e,158.2030,245.9285,159.2272,11181,0.0000008,0.99930655,0.0000,09/22.3751/2018,2000,g  7.0,4.0
# From MPEC 2023-A50
C/2017 U7 (PANSTARRS),h,09/16.1450/2019,142.6397,276.3214,326.3720,1.002555,6.413953,2000,8.3,2.0
# From MPC114601
P/2017 W3 (Gibbs),e,18.1959,210.0338,327.7880,7.816705,0.0450992,0.50736607,129.5935,01/10.0/2026,2000,g 10.5,4.0
# From MPEC 2024-JU4
C/2018 A6 (Gibbs),e,77.1866,340.4840,264.2383,14.99188,0.0169793,0.79892265,40.3345,01/10.0/2026,2000,g  9.0,4.0
# From MPC114602
P/2018 H2 (PANSTARRS),e,7.4112,67.9864,119.0489,4.415444,0.1062288,0.53976238,314.1003,01/10.0/2026,2000,g 16.6,2.0
# From MPEC 2021-R75
C/2018 KJ3 (Lemmon),e,136.6213,91.6949,217.5058,645.9451,0.0000600,0.99440102,0.0000,09/08.0232/2019,2000,g 12.2,2.0
# From MPEC 2022-YN2
C/2018 N2 (ASASSN),h,11/12.0666/2019,77.4592,24.5470,25.3389,1.002093,3.137163,2000,6.0,4.0
# From MPC114603
P/2018 P4 (PANSTARRS),e,23.0690,353.1618,8.5105,6.697445,0.0568644,0.44859730,149.1308,01/10.0/2026,2000,g 12.0,4.0
# From MPEC 2022-QC6
C/2018 S2 (TESS),e,64.1129,85.1108,290.9804,14.36841,0.0180964,0.61746001,47.4780,01/10.0/2026,2000,g  7.5,4.0
# From MPEC 2023-D54
C/2018 S3 (TESS),e,78.3881,25.0493,263.9010,27236,0.0000002,0.99970561,0.0000,06/24.2373/2016,2000,g  6.0,4.0
# From MPC184408
C/2018 U1 (Lemmon),e,108.3266,75.5065,180.3079,14310,0.0000006,0.99965176,0.0000,11/01.7582/2021,2000,g  5.0,4.0
# From MPC181178
P/2018 VN2 (Leonard),e,18.2553,226.4323,138.9295,4.060648,0.1204512,0.47803165,333.7690,01/10.0/2026,2000,g 15.0,4.0
# From MPEC 2023-M14
A/2018 W3,e,104.8328,251.6777,313.8210,685.4002,0.0000549,0.99375782,0.0000,04/13.1970/2021,2000,g 10.5,2.0
# From MPC114605
P/2018 Y2 (Africano),e,11.6970,297.1086,162.4387,7.459574,0.0483763,0.47994441,123.9315,01/10.0/2026,2000,g 11.5,4.0
# From MPEC 2021-P47
P/2019 A2 (ATLAS),e,14.8770,139.3570,323.9998,5.710232,0.0722310,0.38333438,187.9918,01/10.0/2026,2000,g 10.5,4.0
# From MPEC 2022-M21
P/2019 A3 (PANSTARRS),e,15.3565,31.1809,325.5598,3.143367,0.1768526,0.26819157,119.9695,01/10.0/2026,2000,g 16.0,4.0
# From MPEC 2022-L66
P/2019 A4 (PANSTARRS),e,13.3064,119.3541,343.3361,2.614116,0.2331936,0.08750457,242.8977,01/10.0/2026,2000,g 15.0,4.0
# From MPEC 2021-P47
C/2019 A5 (PANSTARRS),e,67.5549,146.4914,355.8767,21.52757,0.0098676,0.70663576,23.7658,01/10.0/2026,2000,g  9.5,4.0
# From MPC115885
P/2019 B2 (Groeller),e,16.9467,175.5962,0.4848,3.932753,0.1263744,0.35771715,308.2045,01/10.0/2026,2000,g 14.5,4.0
# From MPEC 2024-JU4
C/2019 B3 (PANSTARRS),e,66.6249,358.3976,263.9990,3174,0.0000055,0.99784797,0.0000,01/19.3231/2021,2000,g  5.5,4.0
# From MPEC 2025-YF1
C/2019 E3 (ATLAS),e,84.3244,347.1832,280.7243,6303,0.0000020,0.99836361,0.0000,11/15.7735/2023,2000,g  2.5,4.0
# From MPEC 2024-GJ3
C/2019 F1 (ATLAS-Africano),e,54.2737,38.6666,251.2744,54627,0.0000001,0.99993397,0.0000,06/20.8012/2021,2000,g  5.5,4.0
# From MPC114607
P/2019 GG21 (PANSTARRS),e,6.0807,340.5659,208.5880,7.468489,0.0482897,0.47170427,117.6926,01/10.0/2026,2000,g 12.0,4.0
# From MPEC 2024-GJ3
C/2019 K7 (Smith),e,103.4651,308.0476,27.3231,68575,0.0000001,0.99993479,0.0000,06/16.6955/2020,2000,g  6.0,4.0
# From MPEC 2025-W75
P/2019 LD2 (ATLAS),e,11.6657,178.0761,116.0983,5.153833,0.0842381,0.13422715,183.4458,01/10.0/2026,2000,g 12.0,4.0
# From MPC185656
C/2019 L3 (ATLAS),h,01/10.2134/2022,48.3470,290.7099,171.7945,1.003401,3.561308,2000,4.5,4.0
# From MPEC 2025-W75
P/2019 LM4 (Palomar),e,36.4123,72.8752,68.2256,5.701195,0.0724028,0.58642880,173.4038,01/10.0/2026,2000,g 12.9,4.0
# From MPEC 2023-JA2
C/2019 M4 (TESS),e,65.7046,52.6361,260.3230,29518,0.0000002,0.99968865,0.0000,09/08.7006/2019,2000,g  5.0,4.0
# From MPEC 2023-C45
C/2019 N1 (ATLAS),e,82.5787,13.4888,193.3399,942.9236,0.0000340,0.99819412,0.0000,11/30.4283/2020,2000,g  7.5,4.0
# From MPEC 2023-CD8
A/2019 N2,e,89.3204,276.2249,347.0253,1041,0.0000293,0.99813959,0.0000,08/22.3170/2019,2000,g 12.5,2.0
# From MPEC 2025-W75
C/2019 NJ3 (Lemmon),h,10/22.0459/2020,99.3125,142.4921,246.8779,1.001752,4.362152,2000,12.0,4.0
# From MPC185656
C/2019 O2 (PANSTARRS),e,93.2879,48.2655,129.5646,58.83443,0.0021840,0.83546683,2.2060,01/10.0/2026,2000,g  5.0,4.0
# From MPC182878
C/2019 O3 (Palomar),h,03/07.6474/2021,89.7913,300.4826,60.0803,1.001925,8.820241,2000,3.5,4.0
# From MPEC 2024-EF7
C/2019 Q1 (Lemmon),h,07/22.4866/2020,155.7125,42.4741,56.2418,1.002516,4.999987,2000,8.5,4.0
# From MPC117072
C/2019 Q3 (PANSTARRS),h,08/19.1308/2018,65.5877,151.4599,152.6761,1.000733,7.264159,2000,8.5,4.0
# From MPC117072
P/2019 S2 (PANSTARRS),e,10.4636,93.1793,216.8625,4.748169,0.0952609,0.20470243,240.1922,01/10.0/2026,2000,g 13.5,4.0
# From MPEC 2022-CN4
P/2019 S3 (PANSTARRS),e,8.6945,150.1401,213.1023,3.413541,0.1562775,0.47061724,3.4095,01/10.0/2026,2000,g 18.3,4.0
# From MPEC 2023-N01
A/2019 T1,e,120.8000,6.9197,90.9519,38.68178,0.0040968,0.88952832,7.4613,01/10.0/2026,2000,g 13.0,2.0
# From MPEC 2023-R20
C/2019 T2 (Lemmon),e,111.3443,155.6516,239.3686,2758,0.0000068,0.99904169,0.0000,04/22.2712/2021,2000,g  9.0,4.0
# From MPEC 2023-UR6
C/2019 T3 (ATLAS),e,121.8863,139.5498,112.4924,5781,0.0000022,0.99897029,0.0000,03/05.0008/2021,2000,g  6.8,4.0
# From MPC188408
C/2019 T4 (ATLAS),e,53.6246,199.8804,351.1136,893.7389,0.0000369,0.99525962,0.0000,06/08.7438/2022,2000,g  5.0,4.0
# From MPC118096
P/2019 U4 (PANSTARRS),e,11.6957,199.9948,181.0978,3.518003,0.1493688,0.47562900,343.7852,01/10.0/2026,2000,g 19.0,4.0
# From MPEC 2026-A24
C/2019 U5 (PANSTARRS),e,113.5147,2.5978,181.4458,108219,0.0000000,0.99996650,0.0000,03/29.3100/2023,2000,g  4.5,4.0
# From MPEC 2022-L66
P/2019 V2 (Groeller),e,11.8076,189.1178,335.6590,7.495223,0.0480316,0.33210475,91.7475,01/10.0/2026,2000,g 10.0,4.0
# From MPEC 2023-A50
P/2019 W1 (PANSTARRS),e,23.4636,35.3503,18.9220,4.548429,0.1016043,0.26707644,247.3529,01/10.0/2026,2000,g 12.9,4.0
# From MPEC 2021-P47
P/2019 X1 (Pruyne),e,10.2429,43.6721,37.0468,6.181108,0.0641364,0.30362450,151.4268,01/10.0/2026,2000,g 10.4,4.0
# From MPEC 2020-C98
P/2019 X2 (Pan-STARRS),e,15.8949,250.8236,213.5491,3.633208,0.1423209,0.50050915,315.9787,01/10.0/2026,2000,g 18.0,4.0
# From MPEC 2023-A50
C/2020 A3 (ATLAS),e,146.6147,120.7959,268.2196,3490,0.0000048,0.99835138,0.0000,06/26.0466/2019,2000,g  8.0,4.0
# From MPEC 2023-KD6
P/2020 B4 (Sheppard),e,11.6017,185.9336,342.1290,7.976127,0.0437538,0.19316095,66.1311,01/10.0/2026,2000,g 10.5,4.0
# From MPEC 2025-X35
C/2020 F2 (ATLAS),h,07/12.0441/2022,163.5900,250.2954,48.2241,1.001735,8.813893,2000,4.5,4.0
# From MPEC 2024-UQ8
C/2020 F5 (MASTER),e,52.2422,350.5627,310.5761,162.3120,0.0004766,0.97335626,0.0000,03/15.8944/2021,2000,g  6.5,3.2
# From MPEC 2024-A43
C/2020 F7 (Lemmon),e,93.9930,321.8132,228.0057,589.9375,0.0000688,0.99095453,0.0000,11/14.1265/2021,2000,g  7.0,4.0
# From MPC184409
